ONEWEB-0495             
1 54115U 22138C   24293.13411137  .00000041  00000+0  70019-4 0  9998
2 54115  87.9151  65.5053 0002516 102.5777 257.5637 13.19728884 97750
ONEWEB-0499             
1 54117U 22138E   24293.12937531  .00000086  00000+0  18246-3 0  9992
2 54117  87.9152  65.4959 0001803 112.8099 247.3225 13.19726523 97754
ONEWEB-0500             
1 54118U 22138F   24293.13252693  .00000079  00000+0  16439-3 0  9997
2 54118  87.9150  65.4874 0001727  94.2851 265.8480 13.19729032 97760
ONEWEB-0501             
1 54119U 22138G   24292.63183832  .00000043  00000+0  75948-4 0  9992
2 54119  87.9148  65.5842 0002198 102.6278 257.5100 13.19725552 96808
ONEWEB-0503             
1 54121U 22138J   24293.13728151 -.00000033  00000+0 -11423-3 0  9998
2 54121  87.9147  65.4768 0001476 109.0081 251.1211 13.19726005 97759
